 PREDICT Results By: << C2C Shankar Kulumani >>  

 Echo Check Input Data:

      Site Latitude  =     41.850 deg
      Site Longitude =    -87.650 deg
      Site Altitude  =      0.178 km

      Year           =       2007
      Start Day      =      338.0
      End Day        =      365.0

 Echo Check Working Units

     Site Latitude  =  0.73042029 rad
     Site Longitude = -1.52978109 rad

     Start Julian Day = 2454438.50000
     End Julian Day   = 2454465.50000



*********************************************************************
 Echo Check Input Data for: ISS (ZARYA)             
*********************************************************************

    Epoch Year     =         2007
    Epoch Day      = 332.42024503
    N Dot/2        =   0.00020220  rev/day^2
    Inclination    =  51.64270000  deg
    RAAN           = 337.14850000  deg
    Eccentricity   =   0.00010870
    Arg of Perigee = 201.73330000  deg
    Mean Anomaly   = 300.89380000  deg
    Mean Motion    =  15.76801125  rev/day

 Echo Check Working Units

    Epoch Time (month/day, hr:min:sec) =  11/28,  10: 5: 9.17

    Epoch Julian Day (days) =  2454432.92024503

    N    = 0.00114668214 rad/s Ndot2     = +1.70189802639e-013 rad/s^2
    Ecc  = 0.00010870000       Ecc dot   = -1.97848448518e-010 1/s 
    Inc  = 0.90133514962 rad   Mean Anom = +5.25158750884e+000 rad 
    RAAN = 5.88435139316 rad   RAAN dot  = -1.04184520152e-006 rad/s
    Argp = 3.52091029591 rad   Argp dot  = +7.76893177787e-007 rad/s

 MONTH/DAY   HR:MIN (UT)   RHO(KM)     AZ(DEG)    EL(DEG)   VIS?
 ---------------------------------------------------------------

    12/ 4    23:52         793.421     216.421    22.697    Yes
    12/ 5    22:40         966.905     148.722    16.912    Yes
    12/ 5    22:42        1134.603      97.826    13.027    Yes
    12/ 6     0:14         762.856     270.389    24.110    Yes
    12/ 6    23: 0         980.643     216.637    16.532    Yes
    12/ 6    23: 2         417.134     147.055    55.250    Yes
    12/ 6    23: 4         940.743      66.917    17.875    Yes
    12/ 7    23:22         878.671     261.770    19.673    Yes
    12/ 7    23:24         481.488     350.275    44.878    Yes
    12/ 8    23:44        1046.459     295.517    15.069    Yes
    12/ 8    23:46         832.209     353.321    21.483    Yes
    12/ 9    22:30         950.904     256.480    17.419    Yes
    12/ 9    22:32         443.259     333.180    50.445    Yes
    12/ 9    22:34         988.121      42.130    16.584    Yes
    12/10     0: 6        1240.707     314.956    11.076    Yes
    12/10    22:52        1065.603     291.290    14.578    Yes
    12/10    22:54         796.119     348.683    22.818    Yes
    12/10    22:56        1265.479      33.134    10.649    Yes
    12/11    23:14        1237.773     312.940    11.102    Yes
    12/11    23:16        1070.405     358.515    14.575    Yes
    12/13    22:22        1200.721     313.500    11.769    Yes
    12/13    22:24        1062.551       0.410    14.730    Yes
    12/13    23:58        1290.058     338.401    10.209    Yes
    12/14    22:44        1291.390     329.738    10.163    Yes
    12/14    22:46        1216.767      11.821    11.510    Yes
    12/15    23: 6        1252.091     342.574    10.851    Yes
    12/15    23: 8        1227.886      25.338    11.279    Yes
    12/16    23:28        1062.398     354.407    14.692    Yes
    12/17    23:48        1252.627     324.612    10.793    Yes
    12/18    22:36        1033.431       5.611    15.354    Yes
    12/18    22:38        1244.549      51.353    10.890    Yes
    12/19     0:10         859.536     314.857    20.291    Yes
    12/19    22:56        1089.217     332.367    14.021    Yes
    12/19    22:58         744.882      28.905    24.792    Yes
    12/19    23: 0        1181.827      78.673    11.969    Yes
    12/20    23:18         650.655     324.944    29.661    Yes
    12/20    23:20         541.274      91.015    37.660    Yes
    12/21    23:38        1094.413     290.766    13.779    Yes
    12/21    23:40         495.801     238.838    42.279    Yes
    12/21    23:42         891.846     154.366    18.879    Yes
    12/22    22:24        1130.663     314.936    13.057    Yes
    12/22    22:26         471.003     356.857    45.662    Yes
    12/22    22:28         808.842     100.413    21.878    Yes
    12/23     0: 0        1154.338     253.728    12.384    Yes
    12/23     0: 2        1109.883     206.339    13.196    Yes
    12/23    22:46         770.142     285.232    23.493    Yes
    12/23    22:48         500.879     178.914    41.520    Yes
    12/23    22:50        1187.109     143.638    11.628    Yes
    12/24    23: 8         985.806     233.601    16.171    Yes
    12/24    23:10        1234.441     187.078    10.697    Yes
    12/30    12:32        1003.183     138.595    15.819    Yes
    12/30    12:34        1267.049      93.497    10.375    Yes


*********************************************************************
 Echo Check Input Data for: PROGRESS-M 61           
*********************************************************************

    Epoch Year     =         2007
    Epoch Day      = 331.53224545
    N Dot/2        =   0.00020960  rev/day^2
    Inclination    =  51.64140000  deg
    RAAN           = 341.72860000  deg
    Eccentricity   =   0.00011190
    Arg of Perigee = 199.05480000  deg
    Mean Anomaly   = 299.51770000  deg
    Mean Motion    =  15.76767329  rev/day

 Echo Check Working Units

    Epoch Time (month/day, hr:min:sec) =  11/27,  12:46:26.01

    Epoch Julian Day (days) =  2454432.03224545

    N    = 0.00114665756 rad/s Ndot2     = +1.76418311737e-013 rad/s^2
    Ecc  = 0.00011190000       Ecc dot   = -2.05092923102e-010 1/s 
    Inc  = 0.90131246034 rad   Mean Anom = +5.22757003300e+000 rad 
    RAAN = 5.96428921823 rad   RAAN dot  = -1.04182301576e-006 rad/s
    Argp = 3.47416165190 rad   Argp dot  = +7.76947039504e-007 rad/s

 MONTH/DAY   HR:MIN (UT)   RHO(KM)     AZ(DEG)    EL(DEG)   VIS?
 ---------------------------------------------------------------

    12/ 4    23:52         771.323     215.775    23.597    Yes
    12/ 5    22:40         961.080     146.765    17.067    Yes
    12/ 5    22:42        1153.239      96.540    12.637    Yes
    12/ 6     0:14         738.391     271.739    25.200    Yes
    12/ 6    23: 0         947.028     215.936    17.453    Yes
    12/ 6    23: 2         417.423     137.725    55.165    Yes
    12/ 6    23: 4         974.879      66.368    16.908    Yes
    12/ 7    23:22         840.631     262.974    20.969    Yes
    12/ 7    23:24         493.422     357.235    43.351    Yes
    12/ 8    23:44        1013.276     297.816    15.882    Yes
    12/ 8    23:46         844.879     357.130    21.014    Yes
    12/ 9    22:30         897.664     257.659    19.003    Yes
    12/ 9    22:32         448.960     345.396    49.474    Yes
    12/ 9    22:34        1041.614      43.271    15.217    Yes
    12/10     0: 6        1210.298     317.492    11.633    Yes
    12/10    22:52        1019.233     294.119    15.692    Yes
    12/10    22:54         809.402     354.040    22.285    Yes
    12/11    23:14        1197.491     316.211    11.849    Yes
    12/11    23:16        1086.707       2.835    14.192    Yes
    12/12    23:36        1291.726     331.019    10.171    Yes
    12/13    22:22        1152.772     317.848    12.709    Yes
    12/13    22:24        1088.002       5.781    14.136    Yes
    12/13    23:58        1249.663     342.654    10.906    Yes
    12/14    22:44        1249.467     334.501    10.888    Yes
    12/14    22:46        1249.005      16.924    10.907    Yes
    12/15    23: 6        1213.034     348.180    11.556    Yes
    12/15    23: 8        1271.945      30.764    10.474    Yes
    12/16    23:28        1027.341       1.971    15.517    Yes
    12/17    23:48        1135.955     328.817    13.023    Yes
    12/18    22:36        1024.897      15.153    15.541    Yes
    12/19     0:10         719.469     318.391    25.955    Yes
    12/19    22:56         970.850     339.620    16.919    Yes
    12/19    22:58         781.711      43.324    23.158    Yes
    12/20     0:30        1211.455     290.737    11.418    Yes
    12/20    23:16        1248.493     312.003    10.790    Yes
    12/20    23:18         518.043     336.798    40.079    Yes
    12/20    23:20         683.281     100.245    27.588    Yes
    12/21     0:52        1261.542     258.250    10.397    Yes
    12/21    23:38         911.943     286.592    18.454    Yes
    12/21    23:40         485.628     204.686    43.388    Yes
    12/21    23:42        1068.537     149.208    14.120    Yes
    12/22    22:24         932.291     318.912    17.922    Yes
    12/22    22:26         439.674      39.714    50.329    Yes
    12/22    22:28        1003.612     104.982    15.785    Yes
    12/23     0: 0        1071.657     242.575    14.105    Yes
    12/23     0: 2        1196.086     195.701    11.425    Yes
    12/23    22:46         587.648     274.373    33.652    Yes
    12/23    22:48         644.775     158.971    29.579    Yes
    12/24    23: 6        1212.302     265.119    11.257    Yes
    12/24    23: 8         980.660     217.608    16.250    Yes
    12/30    12:30        1172.280     165.141    11.989    Yes
    12/30    12:32        1047.907     117.092    14.755    Yes


*********************************************************************
 Echo Check Input Data for: SOYUZ-TMA 11            
*********************************************************************

